IRIDIUM 144             
1 43249U 18030A   25160.87601217  .00000203  00000+0  65298-4 0  9998
2 43249  86.3961  86.0615 0002331  82.4929 277.6531 14.34218626376796
IRIDIUM 149             
1 43250U 18030B   25160.88235187  .00000142  00000+0  43747-4 0  9997
2 43250  86.3958  86.0301 0002364  82.4318 277.7146 14.34216724376794
IRIDIUM 157             
1 43251U 18030C   25160.83161331  .00000063  00000+0  15465-4 0  9990
2 43251  86.3961  86.0964 0002069  87.1333 273.0100 14.34217910376769
IRIDIUM 140             
1 43252U 18030D   25160.85064192  .00000174  00000+0  55048-4 0  9994
2 43252  86.3958  86.1019 0002484  82.9035 277.2443 14.34218106376822
IRIDIUM 145             
1 43253U 18030E   25160.83796032  .00000227  00000+0  74007-4 0  9993
2 43253  86.3961  86.0801 0002450  75.2207 284.9260 14.34217276376755
IRIDIUM 146             
1 43254U 18030F   25160.88870627  .00000226  00000+0  73567-4 0  9991
2 43254  86.3961  86.0725 0002456  75.4515 284.6953 14.34217700376771
IRIDIUM 148             
1 43255U 18030G   25160.85698155  .00000142  00000+0  43611-4 0  9997
2 43255  86.3964  86.1231 0002141  80.7328 279.4110 14.34217003376807
IRIDIUM 142             
1 43256U 18030H   25160.82527162  .00000167  00000+0  52531-4 0  9992
2 43256  86.3959  86.0389 0002439  72.2238 287.9223 14.34218069376768
